CTC1_L_00491001-01
1 46482U 26448ZO  26070.40837963  .00000000  00000+0  00000-0 0  9992
2 46482 100.4000   0.0000 0000000   0.0000   0.0000 13.16009679    14
CTC1_L_00491002-01
1 46483U 24888EZ  26070.40837963  .00000000  00000+0  00000-0 0  9999
2 46483 100.4000  12.0000 0000000   0.0000  48.0000 13.16009679    10
CTC1_L_00491003-01
1 46484U 26909RL  26070.40837963  .00000000  00000+0  00000-0 0  9996
2 46484 100.4000  24.0000 0000000   0.0000  96.0000 13.16009679    17
CTC1_L_00491004-01
1 46485U 22377ST  26070.40837963  .00000000  00000+0  00000-0 0  9992
2 46485 100.4000  36.0000 0000000   0.0000 144.0000 13.16009679    15
CTC1_L_00491005-01
1 46486U 26498HG  26070.40837963  .00000000  00000+0  00000-0 0  9991
2 46486 100.4000  48.0000 0000000   0.0000 192.0000 13.16009679    12
CTC1_L_00491006-01
1 46487U 24485FZ  26070.40837963  .00000000  00000+0  00000-0 0  9996
2 46487 100.4000  60.0000 0000000   0.0000 240.0000 13.16009679    11
CTC1_L_00491007-01
1 46488U 26484CH  26070.40837963  .00000000  00000+0  00000-0 0  9998
2 46488 100.4000  72.0000 0000000   0.0000 288.0000 13.16009679    17
CTC1_L_00491008-01
1 46489U 22733PU  26070.40837963  .00000000  00000+0  00000-0 0  9992
2 46489 100.4000  84.0000 0000000   0.0000 336.0000 13.16009679    15
CTC1_L_00491009-01
1 46490U 22689QO  26070.40837963  .00000000  00000+0  00000-0 0  9994
2 46490 100.4000  96.0000 0000000   0.0000  24.0000 13.16009679    14
CTC1_L_00491010-01
1 46491U 26130YJ  26070.40837963  .00000000  00000+0  00000-0 0  9990
2 46491 100.4000 108.0000 0000000   0.0000  72.0000 13.16009679    12
CTC1_L_00491011-01
1 46492U 26089DU  26070.40837963  .00000000  00000+0  00000-0 0  9994
2 46492 100.4000 120.0000 0000000   0.0000 120.0000 13.16009679    11
CTC1_L_00491012-01
1 46493U 23772DB  26070.40837963  .00000000  00000+0  00000-0 0  9991
2 46493 100.4000 132.0000 0000000   0.0000 168.0000 13.16009679    17
CTC1_L_00491013-01
1 46494U 24753QY  26070.40837963  .00000000  00000+0  00000-0 0  9992
2 46494 100.4000 144.0000 0000000   0.0000 216.0000 13.16009679    15
CTC1_L_00491014-01
1 46495U 25358BI  26070.40837963  .00000000  00000+0  00000-0 0  9995
2 46495 100.4000 156.0000 0000000   0.0000 264.0000 13.16009679    12
CTC1_L_00491015-01
1 46496U 22540ZK  26070.40837963  .00000000  00000+0  00000-0 0  9996
2 46496 100.4000 168.0000 0000000   0.0000 312.0000 13.16009679    10
CTC1_L_00491016-01
1 46497U 25366JR  26070.40837963  .00000000  00000+0  00000-0 0  9996
2 46497 100.4000 180.0000 0000000   0.0000   0.0000 13.16009679    19
CTC1_L_00491017-01
1 46498U 25484RZ  26070.40837963  .00000000  00000+0  00000-0 0  9998
2 46498 100.4000 192.0000 0000000   0.0000  48.0000 13.16009679    15
CTC1_L_00491018-01
1 46499U 25247JX  26070.40837963  .00000000  00000+0  00000-0 0  9996
2 46499 100.4000 204.0000 0000000   0.0000  96.0000 13.16009679    13
CTC1_L_00491019-01
1 46500U 24337IP  26070.40837963  .00000000  00000+0  00000-0 0  9998
2 46500 100.4000 216.0000 0000000   0.0000 144.0000 13.16009679    13
CTC1_L_00491020-01
1 46501U 26770YE  26070.40837963  .00000000  00000+0  00000-0 0  9992
2 46501 100.4000 228.0000 0000000   0.0000 192.0000 13.16009679    10
CTC1_L_00491021-01
1 46502U 24286OQ  26070.40837963  .00000000  00000+0  00000-0 0  9993
2 46502 100.4000 240.0000 0000000   0.0000 240.0000 13.16009679    19
CTC1_L_00491022-01
1 46503U 26198YJ  26070.40837963  .00000000  00000+0  00000-0 0  9998
2 46503 100.4000 252.0000 0000000   0.0000 288.0000 13.16009679    15
CTC1_L_00491023-01
1 46504U 24208QA  26070.40837963  .00000000  00000+0  00000-0 0  9999
2 46504 100.4000 264.0000 0000000   0.0000 336.0000 13.16009679    13
CTC1_L_00491024-01
1 46505U 25002JE  26070.40837963  .00000000  00000+0  00000-0 0  9993
2 46505 100.4000 276.0000 0000000   0.0000  24.0000 13.16009679    11
CTC1_L_00491025-01
1 46506U 24836JS  26070.40837963  .00000000  00000+0  00000-0 0  9998
2 46506 100.4000 288.0000 0000000   0.0000  72.0000 13.16009679    18
CTC1_L_00491026-01
1 46507U 23226TM  26070.40837963  .00000000  00000+0  00000-0 0  9991
2 46507 100.4000 300.0000 0000000   0.0000 120.0000 13.16009679    18
CTC1_L_00491027-01
1 46508U 24564QO  26070.40837963  .00000000  00000+0  00000-0 0  9998
2 46508 100.4000 312.0000 0000000   0.0000 168.0000 13.16009679    14
CTC1_L_00491028-01
1 46509U 22502YQ  26070.40837963  .00000000  00000+0  00000-0 0  9999
2 46509 100.4000 324.0000 0000000   0.0000 216.0000 13.16009679    12
CTC1_L_00491029-01
1 46510U 23492NF  26070.40837963  .00000000  00000+0  00000-0 0  9990
2 46510 100.4000 336.0000 0000000   0.0000 264.0000 13.16009679    10
CTC1_L_00491030-01
1 46511U 24548UE  26070.40837963  .00000000  00000+0  00000-0 0  9994
2 46511 100.4000 348.0000 0000000   0.0000 312.0000 13.16009679    18
